#aV2015  1 16  0  0  0.00000000     288 DD+AD WGS84 FIT  NGA
## 1827 432000.00000000   300.00000000 57038 0.0000000000000
+   31     1  2  3  4  5  6  7  8  9 10 11 12 13 14 15 16 17
+         18 19 20 21 22 23 24 25 27 28 29 30 31 32  0  0  0
+          0  0  0  0  0  0  0  0  0  0  0  0  0  0  0  0  0
+          0  0  0  0  0  0  0  0  0  0  0  0  0  0  0  0  0
+          0  0  0  0  0  0  0  0  0  0  0  0  0  0  0  0  0
++         2  2  2  2  2  2  2  2  2  2  2  2  2  2  2  2  2
++         2  2  2  2  2  2  2  2  2  2  2  2  2  2  0  0  0
++         0  0  0  0  0  0  0  0  0  0  0  0  0  0  0  0  0
++         0  0  0  0  0  0  0  0  0  0  0  0  0  0  0  0  0
++         0  0  0  0  0  0  0  0  0  0  0  0  0  0  0  0  0
%c cc cc ccc ccc cccc cccc cccc cccc ccccc ccccc ccccc ccccc
%c cc cc ccc ccc cccc cccc cccc cccc ccccc ccccc ccccc ccccc
%f  0.0000000  0.000000000  0.00000000000  0.000000000000000
%f  0.0000000  0.000000000  0.00000000000  0.000000000000000
%i    0    0    0    0      0      0      0      0         0
%i    0    0    0    0      0      0      0      0         0
/*      NGA, ST. LOUIS,MO.                                  
/*   EPHEMERIS COMPUTED FROM  1 DAYS OF DATA                
/*   EPOCHA SMOOTHER                                       
/* CCCCCCCCCCCCCCCCCCCCCCCCCCCCCCCCCCCCCCCCCCCCCCCCCCCCCCCCC
*  2015  1 16 19 35  0.00000000
P  1 -13476.486443  10499.835608  20241.905838    -10.105025                    
V  1  -2739.982411 -25737.695506  11659.524300      0.004268                    
P  2  13774.429190  15245.396806 -16747.849935    542.253854                    
V  2    183.677175  21872.648042  19196.494934      0.022694                    
P  3 -23083.197036  12768.570383   3313.557837    152.451414                    
V  3   1910.204169  -4675.590687  31313.655455      0.246247                    
P  4 -15619.029629  -1313.391379  21146.068897     -5.739643                    
V  4  -2042.793995 -27574.726009  -2914.215639     -0.005861                    
P  5  19077.659728   3006.005527 -18363.993436   -291.984538                    
V  5 -18245.024929  14403.875733 -16467.972756      0.051142                    
P  6   6431.582597  24912.809312  -6637.347552     53.404866                    
V  6  -2031.678252   8578.492773  30256.920929      0.106491                    
P  7  -7705.474161  21767.876913 -12704.296388    432.091697                    
V  7  -3022.283836 -16284.978932 -26216.256091      0.033749                    
P  8 -11862.448067 -13569.277057 -19499.998205     17.147228                    
V  8   2045.547524 -24879.862458  15288.877896      0.000887                    
P  9  -9178.312849  12421.346980 -21615.679662    -57.176029                    
V  9 -24560.127576 -12236.020037   3389.902764     -0.115182                    
P 10   2616.421391  16533.950909 -20917.949078   -159.049708                    
V 10 -22172.002842  13364.498919   8361.204568     -0.016601                    
P 11 -16153.839217   3715.813308  20244.997804   -551.286113                    
V 11 -10225.181705 -25204.825786  -3296.652109     -0.026836                    
P 12  23760.850944  -9844.790736   6077.271502    261.871604                    
V 12  -5628.952154   5832.084767  31259.803514      0.029514                    
P 13  23068.927801  12808.086207   2230.344820    -79.384342                    
V 13   1239.145353   3692.296057 -31991.850640     -0.036616                    
P 14  -9403.936207 -18760.664232  16598.096116     96.229932                    
V 14  18524.676010   9069.035371  20898.295826     -0.035471                    
P 15  23610.646035    299.879333  12385.270450   -226.707927                    
V 15  13378.477805   8845.752838 -25231.861201     -0.022327                    
P 16 -18598.332663  -3460.845752 -18856.775476   -164.428585                    
V 16  19973.152310 -12632.670822 -17075.494538      0.031702                    
P 17   7771.667402  18267.569671  18039.360068   -150.355444                    
V 17 -20106.337321  -9545.673447  18406.660884     -0.021873                    
P 18  11223.252727 -20137.556626  13389.254539    372.752485                    
V 18  15308.715191  -6819.720338 -24251.457337      0.027033                    
P 19 -24019.380287  -7270.889764   9194.063145   -496.877789                    
V 19  -8985.684986  -7869.458751 -28707.954725     -0.014942                    
P 20 -15611.755285  19926.370856  -8140.197372    279.362768                    
V 20 -10243.401038   3377.629298  28649.306957      0.041887                    
P 21   3315.772855 -24919.140302  -7233.567220   -406.708657                    
V 21   4755.259900   9859.159718 -29504.370272     -0.025592                    
P 22  -1260.101359 -17598.368459  20026.967141    308.087902                    
V 22  21452.170201 -13207.181955 -10538.845924      0.041307                    
P 23 -19178.501705   4718.382357 -17822.610678    -82.153598                    
V 23 -19690.362376 -11545.904550  17578.619903     -0.026654                    
P 24  14394.018054  -7116.565824  21112.481820    -41.885234                    
V 24   2975.366142  26751.455269   7114.229730     -0.006200                    
P 25  18789.407729 -17659.395629  -6105.495410      2.818284                    
V 25   7648.833741  -2375.075212  30955.243113     -0.024616                    
P 27 -23509.951813 -12394.864166  -1291.716079     44.772138                    
V 27   2584.907246  -1607.698978 -31759.681458      0.026841                    
P 28  -4948.916469  17825.928833  19642.998013    412.896944                    
V 28 -20834.398744  11076.201203 -15911.397202      0.026728                    
P 29  12502.469847  -9674.941945 -21304.415749    586.316180                    
V 29  23387.585834  13701.301114   7528.513816      0.023637                    
P 30  -1842.167911  26363.628258  -2379.362438    -86.423973                    
V 30  -2932.528182  -3043.745846 -31519.707648      0.001161                    
P 31  -7085.608292 -23658.212272  -9163.761269    325.343791                    
V 31   1947.957519 -12007.176589  29362.184019     -0.007851                    
P 32 -22300.000150    950.960944  13963.463230   -246.063440                    
V 32  14306.629967 -11278.678655  24153.677964      0.087435                    
EOF
